[{"OBJECT_NAME":"KUIPER-00094","OBJECT_ID":"2025-151Z","EPOCH":"2026-03-09T21:52:26.217120","MEAN_MOTION":15.04318495,"ECCENTRICITY":0.00055168,"INCLINATION":51.8894,"RA_OF_ASC_NODE":261.3496,"ARG_OF_PERICENTER":288.9664,"MEAN_ANOMALY":71.071,"EPHEMERIS_TYPE":0,"CLASSIFICATION_TYPE":"U","NORAD_CAT_ID":64839,"ELEMENT_SET_NO":999,"REV_AT_EPOCH":3587,"BSTAR":0.00056295714,"MEAN_MOTION_DOT":7.667e-5,"MEAN_MOTION_DDOT":0},{"OBJECT_NAME":"STARLINK-34803","OBJECT_ID":"2025-165D","EPOCH":"2026-03-09T16:53:36.921120","MEAN_MOTION":15.05648567,"ECCENTRICITY":4.908e-5,"INCLINATION":97.6034,"RA_OF_ASC_NODE":147.2595,"ARG_OF_PERICENTER":122.652,"MEAN_ANOMALY":237.4754,"EPHEMERIS_TYPE":0,"CLASSIFICATION_TYPE":"U","NORAD_CAT_ID":65059,"ELEMENT_SET_NO":999,"REV_AT_EPOCH":3479,"BSTAR":0.00030325473,"MEAN_MOTION_DOT":4.317e-5,"MEAN_MOTION_DDOT":0}]
